[{"OBJECT_NAME":"STARLINK-4728","OBJECT_ID":"2022-111W","EPOCH":"2026-03-09T17:17:43.556064","MEAN_MOTION":15.08835974,"ECCENTRICITY":0.00012614,"INCLINATION":53.2157,"RA_OF_ASC_NODE":273.7832,"ARG_OF_PERICENTER":97.0302,"MEAN_ANOMALY":263.0834,"EPHEMERIS_TYPE":0,"CLASSIFICATION_TYPE":"U","NORAD_CAT_ID":53793,"ELEMENT_SET_NO":999,"REV_AT_EPOCH":19369,"BSTAR":2.064662e-5,"MEAN_MOTION_DOT":4.1e-7,"MEAN_MOTION_DDOT":0},{"OBJECT_NAME":"FENGYUN 1C DEB","OBJECT_ID":"1999-025DQF","EPOCH":"2026-03-09T11:13:08.013504","MEAN_MOTION":14.90370931,"ECCENTRICITY":0.01269339,"INCLINATION":98.9808,"RA_OF_ASC_NODE":67.5909,"ARG_OF_PERICENTER":49.019,"MEAN_ANOMALY":312.1923,"EPHEMERIS_TYPE":0,"CLASSIFICATION_TYPE":"U","NORAD_CAT_ID":35223,"ELEMENT_SET_NO":999,"REV_AT_EPOCH":95173,"BSTAR":0.00097388848,"MEAN_MOTION_DOT":0.00010982,"MEAN_MOTION_DDOT":0}]
